[{"CCSDS_OMM_VERS":"2.0","COMMENT":"GENERATED VIA SPACE-TRACK.ORG API","CREATION_DATE":"2022-12-08T18:21:51","ORIGINATOR":"18 SPCS","OBJECT_NAME":"FENGYUN 2B AKM","OBJECT_ID":"2000-032C","CENTER_NAME":"EARTH","REF_FRAME":"TEME","TIME_SYSTEM":"UTC","MEAN_ELEMENT_THEORY":"SGP4","EPOCH":"2022-12-08T01:40:51.219264","MEAN_MOTION":"1.00139065","ECCENTRICITY":"0.00242270","INCLINATION":"13.7851","RA_OF_ASC_NODE":"15.8828","ARG_OF_PERICENTER":"16.3333","MEAN_ANOMALY":"343.7263","EPHEMERIS_TYPE":"0","CLASSIFICATION_TYPE":"U","NORAD_CAT_ID":"26460","ELEMENT_SET_NO":"999","REV_AT_EPOCH":"10929","BSTAR":"0.00000000000000","MEAN_MOTION_DOT":"-0.00000201","MEAN_MOTION_DDOT":"0.0000000000000","SEMIMAJOR_AXIS":"42201.979","PERIOD":"1438.000","APOAPSIS":"35926.087","PERIAPSIS":"35721.602","OBJECT_TYPE":"ROCKET BODY","RCS_SIZE":"LARGE","COUNTRY_CODE":"PRC","LAUNCH_DATE":"2000-06-25","SITE":"XSC","DECAY_DATE":null,"FILE":"3684614","GP_ID":"219760564","TLE_LINE0":"0 FENGYUN 2B AKM","TLE_LINE1":"1 26460U 00032C   22342.07003726 -.00000201  00000-0  00000-0 0  9995","TLE_LINE2":"2 26460  13.7851  15.8828 0024227  16.3333 343.7263  1.00139065109297"},{"CCSDS_OMM_VERS":"2.0","COMMENT":"GENERATED VIA SPACE-TRACK.ORG API","CREATION_DATE":"2022-12-08T18:21:51","ORIGINATOR":"18 SPCS","OBJECT_NAME":"INTELSAT 9 (PAS 9)","OBJECT_ID":"2000-043A","CENTER_NAME":"EARTH","REF_FRAME":"TEME","TIME_SYSTEM":"UTC","MEAN_ELEMENT_THEORY":"SGP4","EPOCH":"2022-12-08T07:30:58.059072","MEAN_MOTION":"1.00271890","ECCENTRICITY":"0.00042030","INCLINATION":"7.5842","RA_OF_ASC_NODE":"60.0134","ARG_OF_PERICENTER":"194.2570","MEAN_ANOMALY":"245.5350","EPHEMERIS_TYPE":"0","CLASSIFICATION_TYPE":"U","NORAD_CAT_ID":"26451","ELEMENT_SET_NO":"999","REV_AT_EPOCH":"3124","BSTAR":"0.00000000000000","MEAN_MOTION_DOT":"-0.00000278","MEAN_MOTION_DDOT":"0.0000000000000","SEMIMAJOR_AXIS":"42164.703","PERIOD":"1436.095","APOAPSIS":"35804.289","PERIAPSIS":"35768.846","OBJECT_TYPE":"PAYLOAD","RCS_SIZE":"LARGE","COUNTRY_CODE":"US","LAUNCH_DATE":"2000-07-28","SITE":"SEAL","DECAY_DATE":null,"FILE":"3684614","GP_ID":"219759821","TLE_LINE0":"0 INTELSAT 9 (PAS 9)","TLE_LINE1":"1 26451U 00043A   22342.31317198 -.00000278  00000-0  00000-0 0  9999","TLE_LINE2":"2 26451   7.5842  60.0134 0004203 194.2570 245.5350  1.00271890 31249"},{"CCSDS_OMM_VERS":"2.0","COMMENT":"GENERATED VIA SPACE-TRACK.ORG API","CREATION_DATE":"2022-12-08T18:21:51","ORIGINATOR":"18 SPCS","OBJECT_NAME":"SL-12 R\/B(2)","OBJECT_ID":"2000-036D","CENTER_NAME":"EARTH","REF_FRAME":"TEME","TIME_SYSTEM":"UTC","MEAN_ELEMENT_THEORY":"SGP4","EPOCH":"2022-12-08T04:03:42.539904","MEAN_MOTION":"1.00161756","ECCENTRICITY":"0.00203080","INCLINATION":"13.2611","RA_OF_ASC_NODE":"16.5859","ARG_OF_PERICENTER":"50.4107","MEAN_ANOMALY":"108.0507","EPHEMERIS_TYPE":"0","CLASSIFICATION_TYPE":"U","NORAD_CAT_ID":"26397","ELEMENT_SET_NO":"999","REV_AT_EPOCH":"3443","BSTAR":"0.00000000000000","MEAN_MOTION_DOT":"0.00000131","MEAN_MOTION_DDOT":"0.0000000000000","SEMIMAJOR_AXIS":"42195.605","PERIOD":"1437.674","APOAPSIS":"35903.161","PERIAPSIS":"35731.779","OBJECT_TYPE":"ROCKET BODY","RCS_SIZE":"LARGE","COUNTRY_CODE":"CIS","LAUNCH_DATE":"2000-07-04","SITE":"TTMTR","DECAY_DATE":null,"FILE":"3684614","GP_ID":"219759819","TLE_LINE0":"0 SL-12 R\/B(2)","TLE_LINE1":"1 26397U 00036D   22342.16924236  .00000131  00000-0  00000-0 0  9997","TLE_LINE2":"2 26397  13.2611  16.5859 0020308  50.4107 108.0507  1.00161756 34439"},{"CCSDS_OMM_VERS":"2.0","COMMENT":"GENERATED VIA SPACE-TRACK.ORG API","CREATION_DATE":"2022-12-08T18:21:51","ORIGINATOR":"18 SPCS","OBJECT_NAME":"COSMOS 2371","OBJECT_ID":"2000-036A","CENTER_NAME":"EARTH","REF_FRAME":"TEME","TIME_SYSTEM":"UTC","MEAN_ELEMENT_THEORY":"SGP4","EPOCH":"2022-12-08T14:45:06.647328","MEAN_MOTION":"1.00283506","ECCENTRICITY":"0.00047750","INCLINATION":"13.2860","RA_OF_ASC_NODE":"16.6943","ARG_OF_PERICENTER":"104.3731","MEAN_ANOMALY":"253.6925","EPHEMERIS_TYPE":"0","CLASSIFICATION_TYPE":"U","NORAD_CAT_ID":"26394","ELEMENT_SET_NO":"999","REV_AT_EPOCH":"8213","BSTAR":"0.00000000000000","MEAN_MOTION_DOT":"-0.00000116","MEAN_MOTION_DDOT":"0.0000000000000","SEMIMAJOR_AXIS":"42161.446","PERIOD":"1435.929","APOAPSIS":"35803.444","PERIAPSIS":"35763.179","OBJECT_TYPE":"PAYLOAD","RCS_SIZE":"LARGE","COUNTRY_CODE":"CIS","LAUNCH_DATE":"2000-07-04","SITE":"TTMTR","DECAY_DATE":null,"FILE":"3684614","GP_ID":"219761062","TLE_LINE0":"0 COSMOS 2371","TLE_LINE1":"1 26394U 00036A   22342.61466027 -.00000116  00000-0  00000-0 0  9997","TLE_LINE2":"2 26394  13.2860  16.6943 0004775 104.3731 253.6925  1.00283506 82138"},{"CCSDS_OMM_VERS":"2.0","COMMENT":"GENERATED VIA SPACE-TRACK.ORG API","CREATION_DATE":"2022-12-08T03:13:54","ORIGINATOR":"18 SPCS","OBJECT_NAME":"TDRS 8","OBJECT_ID":"2000-034A","CENTER_NAME":"EARTH","REF_FRAME":"TEME","TIME_SYSTEM":"UTC","MEAN_ELEMENT_THEORY":"SGP4","EPOCH":"2022-12-07T19:46:12.614304","MEAN_MOTION":"1.00272667","ECCENTRICITY":"0.00178060","INCLINATION":"10.6407","RA_OF_ASC_NODE":"41.3496","ARG_OF_PERICENTER":"331.6558","MEAN_ANOMALY":"89.5624","EPHEMERIS_TYPE":"0","CLASSIFICATION_TYPE":"U","NORAD_CAT_ID":"26388","ELEMENT_SET_NO":"999","REV_AT_EPOCH":"8227","BSTAR":"0.00000000000000","MEAN_MOTION_DOT":"-0.00000229","MEAN_MOTION_DDOT":"0.0000000000000","SEMIMAJOR_AXIS":"42164.485","PERIOD":"1436.084","APOAPSIS":"35861.428","PERIAPSIS":"35711.272","OBJECT_TYPE":"PAYLOAD","RCS_SIZE":"LARGE","COUNTRY_CODE":"US","LAUNCH_DATE":"2000-06-30","SITE":"AFETR","DECAY_DATE":null,"FILE":"3684212","GP_ID":"219725462","TLE_LINE0":"0 TDRS 8","TLE_LINE1":"1 26388U 00034A   22341.82375711 -.00000229  00000-0  00000-0 0  9994","TLE_LINE2":"2 26388  10.6407  41.3496 0017806 331.6558  89.5624  1.00272667 82271"},{"CCSDS_OMM_VERS":"2.0","COMMENT":"GENERATED VIA SPACE-TRACK.ORG API","CREATION_DATE":"2022-12-08T18:21:51","ORIGINATOR":"18 SPCS","OBJECT_NAME":"FENGYUN 2B","OBJECT_ID":"2000-032A","CENTER_NAME":"EARTH","REF_FRAME":"TEME","TIME_SYSTEM":"UTC","MEAN_ELEMENT_THEORY":"SGP4","EPOCH":"2022-12-08T14:07:36.475104","MEAN_MOTION":"1.00080004","ECCENTRICITY":"0.00014980","INCLINATION":"12.0072","RA_OF_ASC_NODE":"25.7100","ARG_OF_PERICENTER":"4.0688","MEAN_ANOMALY":"9.8499","EPHEMERIS_TYPE":"0","CLASSIFICATION_TYPE":"U","NORAD_CAT_ID":"26382","ELEMENT_SET_NO":"999","REV_AT_EPOCH":"8205","BSTAR":"0.00000000000000","MEAN_MOTION_DOT":"-0.00000339","MEAN_MOTION_DDOT":"0.0000000000000","SEMIMAJOR_AXIS":"42218.581","PERIOD":"1438.849","APOAPSIS":"35846.770","PERIAPSIS":"35834.122","OBJECT_TYPE":"PAYLOAD","RCS_SIZE":"LARGE","COUNTRY_CODE":"PRC","LAUNCH_DATE":"2000-06-25","SITE":"XSC","DECAY_DATE":null,"FILE":"3684614","GP_ID":"219759566","TLE_LINE0":"0 FENGYUN 2B","TLE_LINE1":"1 26382U 00032A   22342.58861661 -.00000339  00000-0  00000-0 0  9996","TLE_LINE2":"2 26382  12.0072  25.7100 0001498   4.0688   9.8499  1.00080004 82055"},{"CCSDS_OMM_VERS":"2.0","COMMENT":"GENERATED VIA SPACE-TRACK.ORG API","CREATION_DATE":"2022-12-08T18:21:51","ORIGINATOR":"18 SPCS","OBJECT_NAME":"SL-12 R\/B(2)","OBJECT_ID":"2000-031D","CENTER_NAME":"EARTH","REF_FRAME":"TEME","TIME_SYSTEM":"UTC","MEAN_ELEMENT_THEORY":"SGP4","EPOCH":"2022-12-08T09:47:59.604000","MEAN_MOTION":"0.99442997","ECCENTRICITY":"0.00145150","INCLINATION":"14.1574","RA_OF_ASC_NODE":"12.7937","ARG_OF_PERICENTER":"81.6675","MEAN_ANOMALY":"111.4520","EPHEMERIS_TYPE":"0","CLASSIFICATION_TYPE":"U","NORAD_CAT_ID":"26381","ELEMENT_SET_NO":"999","REV_AT_EPOCH":"8151","BSTAR":"0.00000000000000","MEAN_MOTION_DOT":"-0.00000243","MEAN_MOTION_DDOT":"0.0000000000000","SEMIMAJOR_AXIS":"42398.683","PERIOD":"1448.066","APOAPSIS":"36082.090","PERIAPSIS":"35959.007","OBJECT_TYPE":"ROCKET BODY","RCS_SIZE":"LARGE","COUNTRY_CODE":"CIS","LAUNCH_DATE":"2000-06-24","SITE":"TTMTR","DECAY_DATE":null,"FILE":"3684614","GP_ID":"219759317","TLE_LINE0":"0 SL-12 R\/B(2)","TLE_LINE1":"1 26381U 00031D   22342.40832875 -.00000243  00000-0  00000-0 0  9994","TLE_LINE2":"2 26381  14.1574  12.7937 0014515  81.6675 111.4520  0.99442997 81514"},{"CCSDS_OMM_VERS":"2.0","COMMENT":"GENERATED VIA SPACE-TRACK.ORG API","CREATION_DATE":"2022-12-08T18:21:51","ORIGINATOR":"18 SPCS","OBJECT_NAME":"GORIZONT 33","OBJECT_ID":"2000-029A","CENTER_NAME":"EARTH","REF_FRAME":"TEME","TIME_SYSTEM":"UTC","MEAN_ELEMENT_THEORY":"SGP4","EPOCH":"2022-12-08T07:27:09.761760","MEAN_MOTION":"1.00296484","ECCENTRICITY":"0.00026200","INCLINATION":"13.2197","RA_OF_ASC_NODE":"15.9532","ARG_OF_PERICENTER":"106.1853","MEAN_ANOMALY":"46.3272","EPHEMERIS_TYPE":"0","CLASSIFICATION_TYPE":"U","NORAD_CAT_ID":"26372","ELEMENT_SET_NO":"999","REV_AT_EPOCH":"8252","BSTAR":"0.00000000000000","MEAN_MOTION_DOT":"-0.00000169","MEAN_MOTION_DDOT":"0.0000000000000","SEMIMAJOR_AXIS":"42157.809","PERIOD":"1435.743","APOAPSIS":"35790.720","PERIAPSIS":"35768.629","OBJECT_TYPE":"PAYLOAD","RCS_SIZE":"LARGE","COUNTRY_CODE":"CIS","LAUNCH_DATE":"2000-06-06","SITE":"TTMTR","DECAY_DATE":null,"FILE":"3684614","GP_ID":"219760817","TLE_LINE0":"0 GORIZONT 33","TLE_LINE1":"1 26372U 00029A   22342.31052965 -.00000169  00000-0  00000-0 0  9992","TLE_LINE2":"2 26372  13.2197  15.9532 0002620 106.1853  46.3272  1.00296484 82529"}]